*******************************************************************************
 Revised: April 12, 2021                 Earth                              399
 
 GEOPHYSICAL PROPERTIES (revised May 9, 2022):
  Vol. Mean Radius (km)    = 6371.01+-0.02   Mass x10^24 (kg)= 5.97219+-0.0006
  Equ. radius, km          = 6378.137        Mass layers:
  Polar axis, km           = 6356.752          Atmos         = 5.1   x 10^18 kg
  Flattening               = 1/298.257223563   oceans        = 1.4   x 10^21 kg
  Density, g/cm^3          = 5.51              crust         = 2.6   x 10^22 kg
  J2 (IERS 2010)           = 0.00108262545     mantle        = 4.043 x 10^24 kg
  g_p, m/s^2  (polar)      = 9.8321863685      outer core    = 1.835 x 10^24 kg
  g_e, m/s^2  (equatorial) = 9.7803267715      inner core    = 9.675 x 10^22 kg
  g_o, m/s^2               = 9.82022         Fluid core rad  = 3480 km
  GM, km^3/s^2             = 398600.435436   Inner core rad  = 1215 km
  GM 1-sigma, km^3/s^2     =      0.0014     Escape velocity = 11.186 km/s
  Rot. Rate (rad/s)        = 0.00007292115   Surface area:
  Mean sidereal day, hr    = 23.9344695944     land          = 1.48 x 10^8 km
  Mean solar day 2000.0, s = 86400.002         sea           = 3.62 x 10^8 km
  Mean solar day 1820.0, s = 86400.0         Love no., k2    = 0.299
  Moment of inertia        = 0.3308          Atm. pressure   = 1.0 bar
  Mean surface temp (Ts), K= 287.6           Volume, km^3    = 1.08321 x 10^12
  Mean effect. temp (Te), K= 255             Magnetic moment = 0.61 gauss Rp^3
  Geometric albedo         = 0.367           Vis. mag. V(1,0)= -3.86
  Solar Constant (W/m^2)   = 1367.6 (mean), 1414 (perihelion), 1322 (aphelion)
 HELIOCENTRIC ORBIT CHARACTERISTICS:
  Obliquity to orbit, deg  = 23.4392911  Sidereal orb period  = 1.0000174 y
  Orbital speed, km/s      = 29.79       Sidereal orb period  = 365.25636 d
  Mean daily motion, deg/d = 0.9856474   Hill's sphere radius = 234.9       
*******************************************************************************


*******************************************************************************
Ephemeris / WWW_USER Thu Apr  9 13:02:52 2026 Pasadena, USA      / Horizons
*******************************************************************************
Target body name: Earth (399)                     {source: DE441}
Center body name: Sun (10)                        {source: DE441}
Center-site name: BODY CENTER
*******************************************************************************
Start time      : A.D. 2018-Aug-12 08:16:24.0000 TDB
Stop  time      : A.D. 2030-Jan-01 00:01:08.0000 TDB
Step-size       : 1440 minutes
*******************************************************************************
Center geodetic : 0.0, 0.0, 0.0                   {E-lon(deg),Lat(deg),Alt(km)}
Center cylindric: 0.0, 0.0, 0.0                   {E-lon(deg),Dxy(km),Dz(km)}
Center radii    : 695700.0, 695700.0, 695700.0 km {Equator_a, b, pole_c}
Output units    : KM-S
Calendar mode   : Mixed Julian/Gregorian
Output type     : GEOMETRIC cartesian states
Output format   : 3 (position, velocity, LT, range, range-rate)
Reference frame : Ecliptic of J2000.0
*******************************************************************************
JDTDB
   X     Y     Z
   VX    VY    VZ
   LT    RG    RR
*******************************************************************************
$$SOE
2458738.844722222 = A.D. 2019-Sep-12 08:16:24.0000 TDB 
 X = 1.478235225294683E+08 Y =-2.867015619564939E+07 Z = 1.258269900131971E+03
 VX= 5.180250457629680E+00 VY= 2.912084732348190E+01 VZ=-5.854249075625262E-04
 LT= 5.022745595842846E+02 RG= 1.505781248086402E+08 RR=-4.591395457119565E-01
2458739.844722222 = A.D. 2019-Sep-13 08:16:24.0000 TDB 
 X = 1.482497206871944E+08 Y =-2.615012647176988E+07 Z = 1.200300932614133E+03
 VX= 4.685179584173460E+00 VY= 2.921185554006689E+01 VZ=-7.613944104303272E-04
 LT= 5.021420399780419E+02 RG= 1.505383964301514E+08 RR=-4.604616143285737E-01
2458740.844722222 = A.D. 2019-Sep-14 08:16:24.0000 TDB 
 X = 1.486330759058876E+08 Y =-2.362257545145064E+07 Z = 1.125953177386895E+03
 VX= 4.188523295022049E+00 VY= 2.929495037370803E+01 VZ=-9.633007457630072E-04
 LT= 5.020091684102125E+02 RG= 1.504985625362336E+08 RR=-4.615929522565070E-01
2458741.844722222 = A.D. 2019-Sep-15 08:16:24.0000 TDB 
 X = 1.489734531023284E+08 Y =-2.108818730767868E+07 Z = 1.033324270981364E+03
 VX= 3.690324890431668E+00 VY= 2.937011903872047E+01 VZ=-1.183180481069357E-03
 LT= 5.018759903398452E+02 RG= 1.504586367551664E+08 RR=-4.625997700361265E-01
2458742.844722222 = A.D. 2019-Sep-16 08:16:24.0000 TDB 
 X = 1.492707208022540E+08 Y =-1.854764790378444E+07 Z = 9.212304826928303E+02
 VX= 3.190624900893409E+00 VY= 2.943733506533408E+01 VZ=-1.412386570040169E-03
 LT= 5.017425319831943E+02 RG= 1.504186269463854E+08 RR=-4.635492955107946E-01
2458743.844722222 = A.D. 2019-Sep-17 08:16:24.0000 TDB 
 X = 1.495247509772817E+08 Y =-1.600164600469900E+07 Z = 7.892592263203114E+02
 VX= 2.689462853244217E+00 VY= 2.949655767232491E+01 VZ=-1.641741264196028E-03
 LT= 5.016088001058599E+02 RG= 1.503785351381664E+08 RR=-4.645091938641386E-01
2458744.844722222 = A.D. 2019-Sep-18 08:16:24.0000 TDB 
 X = 1.497354190308370E+08 Y =-1.345087453416131E+07 Z = 6.378084478145465E+02
 VX= 2.186878913732039E+00 VY= 2.954773128806215E+01 VZ=-1.861682589190394E-03
 LT= 5.014747819604036E+02 RG= 1.503383575089234E+08 RR=-4.655471707592049E-01
2458745.844722222 = A.D. 2019-Sep-19 08:16:24.0000 TDB 
 X = 1.499026039155852E+08 Y =-1.089603187981296E+07 Z = 4.681143684377894E+02
 VX= 1.682915296142226E+00 VY= 2.959078484015602E+01 VZ=-2.062386223478541E-03
 LT= 5.013404452991462E+02 RG= 1.502980843910456E+08 RR=-4.667308379583722E-01
2458746.844722222 = A.D. 2019-Sep-20 08:16:24.0000 TDB 
 X = 1.500261883700146E+08 Y =-8.337823288294014E+06 Z = 2.822695176335983E+02
 VX= 1.177617693864045E+00 VY= 2.962563029644464E+01 VZ=-2.233873554754240E-03
 LT= 5.012057384119400E+02 RG= 1.502577002822205E+08 RR=-4.681276017602728E-01
2458747.844722222 = A.D. 2019-Sep-21 08:16:24.0000 TDB 
 X = 1.501060593050664E+08 Y =-5.776962434374933E+06 Z = 8.323019744409248E+01
 VX= 6.710374912396393E-01 VY= 2.965216005565522E+01 VZ=-2.366162008460293E-03
 LT= 5.010705902662641E+02 RG= 1.502171838874342E+08 RR=-4.698039175962241E-01
2458748.844722222 = A.D. 2019-Sep-22 08:16:24.0000 TDB 
 X = 1.501421084592392E+08 Y =-3.214173265072411E+06 Z =-1.251946271113120E+02
 VX= 1.632360114992114E-01 VY= 2.967024326895414E+01 VZ=-2.449567333599134E-03
 LT= 5.009349110799717E+02 RG= 1.501765082906761E+08 RR=-4.718228186293860E-01
2458749.844722222 = A.D. 2019-Sep-23 08:16:24.0000 TDB 
 X = 1.501342335640910E+08 Y =-6.501921749849388E+05 Z =-3.383925718025421E+02
 VX=-3.457076629104794E-01 VY= 2.967972213150360E+01 VZ=-2.475311729636331E-03
 LT= 5.007985940198797E+02 RG= 1.501356414641638E+08 RR=-4.742383391574391E-01
2458750.844722222 = A.D. 2019-Sep-24 08:16:24.0000 TDB 
 X = 1.500823403854172E+08 Y = 1.914229579657204E+06 Z =-5.510684941472718E+02
 VX=-8.556841346635498E-01 VY= 2.968041061056200E+01 VZ=-2.436589342924123E-03
 LT= 5.006615191048092E+02 RG= 1.500945474384447E+08 RR=-4.770856604268468E-01
2458751.844722222 = A.D. 2019-Sep-25 08:16:24.0000 TDB 
 X = 1.499863460464236E+08 Y = 4.478323600637757E+06 Z =-7.574792062272318E+02
 VX=-1.366536874817797E+00 VY= 2.967209956039699E+01 VZ=-2.330130195263180E-03
 LT= 5.005235605825384E+02 RG= 1.500531885139511E+08 RR=-4.803670471693741E-01
2458752.844722222 = A.D. 2019-Sep-26 08:16:24.0000 TDB 
 X = 1.498461838679814E+08 Y = 7.041302943983568E+06 Z =-9.518177795652300E+02
 VX=-1.878044888854859E+00 VY= 2.965457251097119E+01 VZ=-2.158028238490317E-03
 LT= 5.003845986783625E+02 RG= 1.500115287831299E+08 RR=-4.840363239982415E-01
2458753.844722222 = A.D. 2019-Sep-27 08:16:24.0000 TDB 
 X = 1.496618094627738E+08 Y = 9.602362618935103E+06 Z =-1.128745827743784E+03
 VX=-2.389912579453202E+00 VY= 2.962763375826605E+01 VZ=-1.929200997846436E-03
 LT= 5.002445353148179E+02 RG= 1.499695388430970E+08 RR=-4.879881381106793E-01
2458754.844722222 = A.D. 2019-Sep-28 08:16:24.0000 TDB 
 X = 1.494332070542669E+08 Y = 1.216068289934275E+07 Z =-1.284003562594764E+03
 VX=-2.901776059827348E+00 VY= 2.959114388386512E+01 VZ=-1.659579934473854E-03
 LT= 5.001033112608283E+02 RG= 1.499272009368228E+08 RR=-4.920600316747460E-01
2458755.844722222 = A.D. 2019-Sep-29 08:16:24.0000 TDB 
 X = 1.491603943423919E+08 Y = 1.471543559980749E+07 Z =-1.414955588733777E+03
 VX=-3.413230458440167E+00 VY= 2.954505037956200E+01 VZ=-1.370382805914616E-03
 LT= 4.999609201872518E+02 RG= 1.498845131668780E+08 RR=-4.960520036321219E-01
2458756.844722222 = A.D. 2019-Sep-30 08:16:24.0000 TDB 
 X = 1.488434242823192E+08 Y = 1.726579226174438E+07 Z =-1.520909118389711E+03
 VX=-3.923872068173035E+00 VY= 2.948939925973079E+01 VZ=-1.084705195248503E-03
 LT= 4.998174149291024E+02 RG= 1.498414913728015E+08 RR=-4.997595205083810E-01
2458757.844722222 = A.D. 2019-Oct-01 08:16:24.0000 TDB 
 X = 1.484823831244004E+08 Y = 1.981093225491174E+07 Z =-1.603106565826572E+03
 VX=-4.433339814203531E+00 VY= 2.942432156056143E+01 VZ=-8.236461849460142E-04
 LT= 4.996729037295718E+02 RG= 1.497981680050857E+08 RR=-5.030076095940951E-01
2458758.844722222 = A.D. 2019-Oct-02 08:16:24.0000 TDB 
 X = 1.480773854762712E+08 Y = 2.235004883346191E+07 Z =-1.664417329134420E+03
 VX=-4.941340808515094E+00 VY= 2.935000156656331E+01 VZ=-6.034278331821241E-04
 LT= 4.995275381289451E+02 RG= 1.497545884943652E+08 RR=-5.056730425040660E-01
2458759.844722222 = A.D. 2019-Oct-03 08:16:24.0000 TDB 
 X = 1.476285680846847E+08 Y = 2.488235217500197E+07 Z =-1.708855219205841E+03
 VX=-5.447654535282100E+00 VY= 2.926664125089535E+01 VZ=-4.342832188282131E-04
 LT= 4.993814969432963E+02 RG= 1.497108064483503E+08 RR=-5.076892239145848E-01
